satname,norad_id,inclination_deg,eccentricity,mean_motion_rev_per_day,perigee_km,apogee_km,l1,l2
STARLINK-1320,45572,53.0575,0.0009558,15.43345804,429.7297561882524,442.7561248825805,1 45572U 20025AT  25308.08834396  .00088869  00000+0  19461-2 0  9992,2 45572  53.0575 232.8941 0009558  37.6091 322.5581 15.43345804307263
STARLINK-1321,45573,53.0544,0.0001501,15.06399976,546.1721366652346,548.2511263244096,1 45573U 20025AU  25308.87600558 -.00001445  00000+0 -78124-4 0  9991,2 45573  53.0544 276.9293 0001501  82.6730 277.4430 15.06399976306391
STARLINK-1328,45576,53.0521,0.001137,15.69983407,351.2844161438388,366.60453942432014,1 45576U 20025AX  25308.91668980  .00171126  00000+0  13683-2 0  9991,2 45576  53.0521 251.0935 0011370  58.9079 298.4920 15.69983407  5944
STARLINK-1331,45578,53.0544,0.0001426,15.06398595,546.2283087458518,548.203419382683,1 45578U 20025AZ  25308.65485214  .00002770  00000+0  20476-3 0  9998,2 45578  53.0544 277.9217 0001426  88.9011 271.2142 15.06398595306679
STARLINK-1333,45580,53.054,0.0001302,15.06399485,546.311455751802,548.1148169273047,1 45580U 20025BB  25308.66130315  .00001202  00000+0  99592-4 0  9996,2 45580  53.0540 287.8918 0001302  90.4751 269.6387 15.06399485306523
STARLINK-1335,45581,53.0545,0.0001475,15.06423013,546.1195487966315,548.1625058146865,1 45581U 20025BC  25308.20147430  .00006976  00000+0  48648-3 0  9991,2 45581  53.0545 279.9571 0001475  94.3873 265.7285 15.06423013306591
STARLINK-1337,45582,53.0549,0.0001458,15.06413692,546.1598845466933,548.1793039495769,1 45582U 20025BD  25308.22358819  .00002829  00000+0  20867-3 0  9995,2 45582  53.0549 279.8596 0001458  92.5515 267.5641 15.06413692306594
STARLINK-1347,45586,53.0536,0.0008045,15.32164612,463.84655342173846,474.86416863063005,1 45586U 20025BH  25308.17298989  .00097807  00000+0  30749-2 0  9993,2 45586  53.0536 264.9458 0008045  22.1841 337.9506 15.32164612306794
STARLINK-1360,45588,53.0431,0.0005212,15.76221061,337.6566568607677,344.660850754537,1 45588U 20025BK  25308.64011757  .00106176  00000+0  65871-3 0  9998,2 45588  53.0431 180.0762 0005212 142.9434 217.1946 15.76221061308034
STARLINK-1364,45589,53.0554,0.0001187,15.06380311,546.4498565080758,548.0939485815397,1 45589U 20025BL  25308.62538677 -.00001433  00000+0 -77387-4 0  9990,2 45589  53.0554 278.0570 0001187  97.2619 262.8505 15.06380311306651
STARLINK-1365,45590,53.0541,0.0001271,15.06396545,546.3419338883168,548.102360183494,1 45590U 20025BM  25308.70737289  .00000372  00000+0  43852-4 0  9990,2 45590  53.0541 307.6847 0001271  89.9817 270.1318 15.06396545306264
STARLINK-1443,45660,53.0538,0.0001528,15.06404423,546.1398109251513,548.2561933017969,1 45660U 20035D   25308.62627549 -.00001830  00000+0 -10394-3 0  9993,2 45660  53.0538 268.0516 0001528  96.7169 263.3994 15.06404423299880
STARLINK-1446,45663,53.0273,0.000199,15.34000045,462.5306852084168,465.25381284953073,1 45663U 20035G   25308.10368262  .00048671  00000+0  14605-2 0  9993,2 45663  53.0273 232.5968 0001990  69.8943 290.2271 15.34000045300333
STARLINK-1448,45665,53.0546,0.0001453,15.06401166,546.2017316922947,548.2142369447383,1 45665U 20035J   25308.16553624 -.00000269  00000+0  86670-6 0  9996,2 45665  53.0546 270.1154 0001453  87.1193 272.9963 15.06401166299809
STARLINK-1451,45668,53.0539,0.0001449,15.06389666,546.2397427455953,548.2467179363475,1 45668U 20035M   25308.76639900 -.00001658  00000+0 -92490-4 0  9996,2 45668  53.0539 267.7378 0001449  90.7869 269.3286 15.06389666299908
STARLINK-1452,45669,53.0413,0.0011726,15.26923942,476.96654187057175,493.0620042361361,1 45669U 20035N   25308.55296661  .00044641  00000+0  16662-2 0  9999,2 45669  53.0413 249.0734 0011726  35.4144 324.7631 15.26923942300142
STARLINK-1453,45670,53.0532,0.0001723,15.06421782,545.9515739957233,548.3380261040211,1 45670U 20035P   25308.51108380 -.00002656  00000+0 -15933-3 0  9990,2 45670  53.0532 238.5683 0001723  85.0816 275.0370 15.06421782300179
STARLINK-1454,45671,53.0544,0.0001536,15.06408005,546.1232941047874,548.2507536449211,1 45671U 20035Q   25308.58942052  .00000225  00000+0  34020-4 0  9997,2 45671  53.0544 268.2177 0001536  86.9114 273.2051 15.06408005299866
STARLINK-1456,45673,53.055,0.0001658,15.06417571,546.0094920151823,548.3059197396506,1 45673U 20035S   25308.20608447  .00002586  00000+0  19238-3 0  9990,2 45673  53.0550 269.9395 0001658  88.0775 272.0403 15.06417571299828
STARLINK-1457,45674,53.0534,0.0001467,15.16308256,515.9981446746351,518.0211807054684,1 45674U 20035T   25308.91668980  .01578821  00000+0  74117-1 0  9993,2 45674  53.0534 266.5628 0001467 116.6536 193.5859 15.16308256  5786
STARLINK-1458,45675,53.0543,0.0001302,15.06401374,546.305666995414,548.1090266633291,1 45675U 20035U   25308.79952067 -.00001753  00000+0 -98843-4 0  9993,2 45675  53.0543 267.2733 0001302  73.4970 286.6162 15.06401374299872
STARLINK-1460,45676,53.0543,0.000159,15.06410525,546.0781752251878,548.2804258087526,1 45676U 20035V   25308.17290921  .00001652  00000+0  12977-3 0  9999,2 45676  53.0543 270.0835 0001590  95.4585 264.6586 15.06410525299776
STARLINK-1392,45677,53.0543,0.0001734,15.06418749,545.9532500736514,548.3549410255873,1 45677U 20035W   25308.18397174  .00007271  00000+0  50625-3 0  9994,2 45677  53.0543 270.0372 0001734  93.0910 267.0277 15.06418749299814
STARLINK-1394,45679,53.0538,0.0001454,15.06406565,546.184494477111,548.1983799866584,1 45679U 20035Y   25308.57929182  .00002606  00000+0  19377-3 0  9995,2 45679  53.0538 258.2611 0001454  79.2003 280.9150 15.06406565300014
STARLINK-1402,45685,53.0531,0.0002659,15.27248538,482.21713867199287,485.86644535358573,1 45685U 20035AE  25308.85711245  .00067088  00000+0  24698-2 0  9998,2 45685  53.0531 249.1450 0002659 115.0080 245.1194 15.27248538300171
STARLINK-1404,45686,53.0542,0.0001547,15.06434702,546.0338683791097,548.1765383168249,1 45686U 20035AF  25308.14066431  .00013322  00000+0  91070-3 0  9992,2 45686  53.0542 260.2319 0001547  90.2455 269.8711 15.06434702299955
STARLINK-1413,45689,53.0562,0.0001687,15.06384856,546.0896583741223,548.4262866378449,1 45689U 20035AJ  25308.88892465 -.00000543  00000+0 -17571-4 0  9998,2 45689  53.0562 256.8694 0001687  87.4938 272.6245 15.06384856299976
STARLINK-1417,45693,53.0545,0.0001721,15.06406605,545.9994656355893,548.383163641487,1 45693U 20035AN  25308.88522082 -.00000752  00000+0 -31574-4 0  9999,2 45693  53.0545 256.8892 0001721 106.0560 254.0619 15.06406605300058
STARLINK-1420,45695,53.0543,0.0001742,15.06411443,545.9700974039397,548.3828766228153,1 45695U 20035AQ  25308.81976995  .00001164  00000+0  97002-4 0  9994,2 45695  53.0543 237.1710 0001742  83.1695 276.9492 15.06411443300335
STARLINK-1422,45696,53.0555,0.0001439,15.06408821,546.1879692085013,548.1810767428142,1 45696U 20035AR  25308.69723294 -.00000848  00000+0 -38025-4 0  9993,2 45696  53.0555 257.7360 0001439  92.0162 268.0992 15.06408821300028
STARLINK-1351,45697,53.0544,0.0001681,15.06399067,546.0502658771029,548.37856902365,1 45697U 20035AS  25308.80597803  .00000096  00000+0  25346-4 0  9997,2 45697  53.0544 237.2447 0001681  87.2253 272.8928 15.06399067300339
STARLINK-1398,45699,53.0499,0.0005553,15.51988242,407.15162872804376,414.6915572013904,1 45699U 20035AU  25307.99249124  .00114626  00000+0  18531-2 0  9999,2 45699  53.0499 199.4392 0005553 114.2241 245.9348 15.51988242300794
STARLINK-1400,45700,53.0545,0.0002474,15.06398367,545.503230381154,548.9298953240523,1 45700U 20035AV  25308.78017591 -.00000953  00000+0 -45057-4 0  9995,2 45700  53.0545 237.3607 0002474  79.4121 280.7147 15.06398367300324
STARLINK-1403,45701,53.0544,0.0001695,15.06427292,545.9540807491176,548.301745554676,1 45701U 20035AW  25308.54426220  .00003522  00000+0  25503-3 0  9999,2 45701  53.0544 238.4191 0001695  87.4681 272.6502 15.06427292300288
STARLINK-1407,45703,53.0413,0.0012792,15.41589418,432.69428901907395,450.1414381821087,1 45703U 20035AY  25308.70224144  .00024510  00000+0  58030-3 0  9991,2 45703  53.0413 195.2778 0012792  75.2140 285.0281 15.41589418300911
STARLINK-1411,45706,53.0532,0.0003043,15.4157201,439.3939966231519,443.5444089581706,1 45706U 20035BB  25308.77735773  .00119106  00000+0  27573-2 0  9999,2 45706  53.0532 222.0775 0003043 128.1563 231.9715 15.41572010300538
STARLINK-1423,45710,53.0539,0.0003064,15.06406647,545.0692653593669,549.3131064716954,1 45710U 20035BF  25308.83546169 -.00001380  00000+0 -73660-4 0  9996,2 45710  53.0539 237.1129 0003064  79.1120 281.0213 15.06406647300337
STARLINK-1433,45711,53.0537,0.0001985,15.06412064,545.7999094131919,548.5492581119452,1 45711U 20035BG  25308.81702873  .00003485  00000+0  25269-3 0  9998,2 45711  53.0537 237.1924 0001985  91.6567 268.4649 15.06412064300324
STARLINK-1434,45712,53.051,0.0006222,15.15681595,514.6187287350303,523.2014141107093,1 45712U 20035BH  25308.82003110  .00019403  00000+0  10202-2 0  9995,2 45712  53.0510 233.0605 0006222  76.7435 283.4252 15.15681595300395
STARLINK-1465,45731,53.0529,0.0001343,15.06415695,546.2333875902505,548.0935232925831,1 45731U 20038B   25308.78385309  .00003801  00000+0  27381-3 0  9999,2 45731  53.0529  77.3399 0001343  86.2807 273.8335 15.06415695297366
STARLINK-1471,45735,53.0526,8.76e-05,15.41076055,442.33473985168257,443.52979118700205,1 45735U 20038F   25308.57486294  .00017896  00000+0  43502-3 0  9997,2 45735  53.0526  17.5668 0000876 126.0019 234.1066 15.41076055298195
STARLINK-1474,45738,53.0379,0.0004195,15.6745652,363.35382986739296,369.01231440791616,1 45738U 20038J   25308.79944344  .00068593  00000+0  62081-3 0  9992,2 45738  53.0379 333.0098 0004195 358.2353   1.8647 15.67456520298837
STARLINK-1475,45739,53.0474,0.0006545,15.79008491,328.8560903531179,337.64129422432416,1 45739U 20038K   25308.91668980  .00279412  00000+0  14941-2 0  9991,2 45739  53.0474 298.6161 0006545  35.8368  68.8759 15.79008491  5977
